ONEWEB-0382             
1 49308U 21090AF  23059.23909576 -.00000028  00000+0 -10069-3 0  9996
2 49308  87.9332 154.2666 0002253  97.2521 262.8869 13.20770300 72076
ONEWEB-0382             
1 49308U 21090AF  23059.31485228 -.00000030  00000+0 -10528-3 0  9991
2 49308  87.9332 154.2517 0002253  97.2454 262.8935 13.20770765 70770
ONEWEB-0382             
1 49308U 21090AF  23059.76939379  .00000035  00000+0  54375-4 0  9993
2 49308  87.9332 154.1618 0002254  97.1457 262.9932 13.20770181 70831
ONEWEB-0382             
1 49308U 21090AF  23060.29969154 -.00000003  00000+0 -39170-4 0  9990
2 49308  87.9330 154.0568 0002246  97.0418 263.0970 13.20770753 70906
ONEWEB-0382             
1 49308U 21090AF  23060.29969154 -.00000003  00000+0 -39170-4 0  9990
2 49308  87.9330 154.0568 0002246  97.0418 263.0970 13.20770753 72212
ONEWEB-0382             
1 49308U 21090AF  23061.81482929  .00000063  00000+0  12348-3 0  9990
2 49308  87.9328 153.7566 0002218  96.9875 263.1511 13.20769812 71100
ONEWEB-0382             
1 49308U 21090AF  23062.26936893  .00000131  00000+0  29146-3 0  9994
2 49308  87.9323 153.6664 0002242  96.9452 263.1936 13.20771238 71163
ONEWEB-0382             
1 49308U 21090AF  23062.26936893  .00000131  00000+0  29146-3 0  9994
2 49308  87.9323 153.6664 0002242  96.9452 263.1936 13.20771238 72478
